#aV2009  1 11  0  0   .00000000      96 DD+AD WGS84 FIT  NGA
## 1514       .00000000   900.00000000 54842  .0000000000000
+   31     2  3  4  5  6  7  8  9 10 11 12 13 14 15 16 17 18
+         19 20 21 22 23 24 25 26 27 28 29 30 31 32  0  0  0
+          0  0  0  0  0  0  0  0  0  0  0  0  0  0  0  0  0
+          0  0  0  0  0  0  0  0  0  0  0  0  0  0  0  0  0
+          0  0  0  0  0  0  0  0  0  0  0  0  0  0  0  0  0
++         0  0  0  0  0  0  0  0  0  0  0  0  0  0  0  0  0
++         0  0  0  0  0  0  0  0  0  0  0  0  0  0  0  0  0
++         0  0  0  0  0  0  0  0  0  0  0  0  0  0  0  0  0
++         0  0  0  0  0  0  0  0  0  0  0  0  0  0  0  0  0
++         0  0  0  0  0  0  0  0  0  0  0  0  0  0  0  0  0
%c cc cc ccc ccc cccc cccc cccc cccc ccccc ccccc ccccc ccccc
%c cc cc ccc ccc cccc cccc cccc cccc ccccc ccccc ccccc ccccc
%f  0.0000000  0.000000000  0.00000000000  0.000000000000000
%f  0.0000000  0.000000000  0.00000000000  0.000000000000000
%i    0    0    0    0      0      0      0      0         0
%i    0    0    0    0      0      0      0      0         0
/*      NGA, ST. LOUIS,MO.                                  
/*   EPHEMERIS COMPUTED FROM  3 DAYS OF DATA                
/* CCCCCCCCCCCCCCCCCCCCCCCCCCCCCCCCCCCCCCCCCCCCCCCCCCCCCCCCC
/* CCCCCCCCCCCCCCCCCCCCCCCCCCCCCCCCCCCCCCCCCCCCCCCCCCCCCCCCC
*  2009  1 11  8 45   .00000000                                                 
P  2 -20923.424518  13508.826934   8522.841160    162.199064                    
V  2 -11669.883398    213.834114 -28953.971517      -.018829                    
P  3  10651.940313 -21241.546237  11197.600748    337.332308                    
V  3   2118.696212  15167.990729  26420.258646       .053280                    
P  4 -25987.733059   4867.998366  -4263.011101   -295.828762                    
V  4   4068.261127  -4469.597757 -30451.416463      -.133290                    
P  5  11778.836796  20345.202884 -12773.789255   -526.468001                    
V  5 -14102.056214  -7426.946953 -25301.101569      -.601564                    
P  6  13918.444542 -17448.638816  14565.218464     95.906223                    
V  6   -449.538829  18449.235348  22845.451413      -.119640                    
P  7 -14951.383294  -9579.526834  19768.801954     23.378175                    
V  7  23566.639722  -8684.446191  13497.626958      -.001412                    
P  8 -24456.015639  -1103.518375  10847.620572   -185.890496                    
V  8  12877.507717  -4750.815875  27915.885437      -.016276                    
P  9  -2468.220062  16336.474981 -21416.759183     34.400228                    
V  9 -24406.660898   8085.049672   9371.141810       .019273                    
P 10  -9347.225752  11975.324010  21624.111869     -9.330610                    
V 10 -20361.606528 -18976.355787   2028.750038      -.005018                    
P 11   -939.908167 -17864.731997 -19747.547772     10.857525                    
V 11  22634.868494 -10897.506912   9225.260888      -.010824                    
P 12   7687.563758  20770.507619 -14663.254387   -326.526179                    
V 12 -15084.294260 -11208.918667 -23566.310313       .032654                    
P 13  -6577.853541 -18830.941103  17429.005348    284.539676                    
V 13   6926.616871 -21204.700010 -20151.178782       .013938                    
P 14  15210.536733  -2452.843621 -21494.149158   -169.816519                    
V 14  -6263.387721  26809.700814  -7552.726456       .051173                    
P 15  -6123.413111  25790.738409   1249.768810   -240.465890                    
V 15  -2607.974896  -2109.593053  31647.409454      -.056644                    
P 16  14549.002282  -6473.085213  21352.698932     82.800367                    
V 16  19210.419181  18850.123696  -7179.224192      -.026625                    
P 17 -15346.261495   -851.862938 -21600.116914     43.982636                    
V 17   5881.203501 -26929.724912  -3290.400844       .009426                    
P 18  20344.755757  17168.262671  -2515.533080    -94.201587                    
V 18    363.828848   4539.261637  30946.082411       .036771                    
P 19   6978.098919 -25489.669798   -669.767519     33.969118                    
V 19   3268.164445    -13.296688  31805.361835      -.004465                    
P 20 -10383.739170 -21072.442303 -12561.206668     93.968228                    
V 20  13644.458633   8350.420622 -25488.289279      -.010302                    
P 21  19574.786919   7270.553046  16977.777203     34.391992                    
V 21 -19593.139236   7715.108464  18925.090701      -.017448                    
P 22  21679.150261   8083.350544 -12936.548624    206.771189                    
V 22  10026.527323  13631.047311  24958.177402      -.004495                    
P 23  -1436.731971 -24486.045204   9791.930201    384.829358                    
V 23   5115.385670 -11747.445128 -28747.955747       .008218                    
P 24   4225.769094  14905.108034  21708.870356    156.680526                    
V 24 -26326.968802   7141.284896    491.907511       .029977                    
P 25  -7877.906618 -13141.825910  22044.939033    165.942900                    
V 25  24827.662951 -10924.708325   2581.022200       .265967                    
P 26 -10606.195738  23012.189180   6467.201132     35.115189                    
V 26    199.091390  -9253.110369  31372.640785       .034651                    
P 27 -24916.376396   2540.188402   9700.689366     15.346757                    
V 27   9829.382437  -5908.190560  28722.755794       .031894                    
P 28 -21789.842454 -10378.715518 -11043.918131    -23.774247                    
V 28  -8969.865762 -11624.885451  27273.041644      -.000460                    
P 29   7058.353326  19759.889358  16408.464562    -18.940324                    
V 29  -6620.726348  19628.045588 -20883.386585       .027555                    
P 30  17761.927502  19301.187968  -4809.985050    119.097213                    
V 30  -6222.269626  -1371.251321 -30702.972932       .023250                    
P 31  25565.526135  -7267.266554  -1383.212690    -47.253317                    
V 31  -1171.308252   2906.367038 -31832.342524      -.015476                    
P 32  -2444.292478 -19950.167198 -17066.282754    304.302548                    
V 32  16414.715464  15293.372415 -19530.019158      -.026119                    
EOF
